HELIOS 2A               
1 28492U 04049A   23251.10305898  .00002209  00000+0  20615-3 0  9998
2 28492  98.2904 222.2009 0014957  54.7523 305.5094 14.95260651  1969
SPIRALE A               
1 33751U 09008C   23250.94137192  .00000550  00000+0  11929-2 0  9997
2 33751   1.9858 189.8497 5499968  15.9149 356.0374  4.59097877215289
SPIRALE B               
1 33752U 09008D   23250.59328140  .00015808  00000+0  26361-2 0  9992
2 33752   1.8344 237.0162 6814699 272.0647  17.3663  2.89721571137812
SAPPHIRE                
1 39088U 13009C   23251.04274827  .00000164  00000+0  73120-4 0  9995
2 39088  98.4148  80.2805 0011947  30.6782 329.5100 14.34500192551308
